{"type": "FeatureCollection", "features": [ {"type": "Feature", "properties": {"norad_id": 37046, "name": "FENGYUN 1C DEB", "group": "fengyun-1c-debris", "lat": 31.7425786662346, "lon": 4.536922743478305, "alt_km": 820.0660634471269, "timestamp": "2025-12-21T20:41:08.248599+00:00", "meta": {"OBJECT_NAME": "FENGYUN 1C DEB", "OBJECT_ID": "1999-025EEE", "EPOCH": "2025-12-20T07:27:28.729152", "MEAN_MOTION": 14.24864867, "ECCENTRICITY": 0.00488593, "INCLINATION": 98.5442, "RA_OF_ASC_NODE": 8.3637, "ARG_OF_PERICENTER": 284.7965, "MEAN_ANOMALY": 74.7805, "EPHEMERIS_TYPE": 0, "CLASSIFICATION_TYPE": "U", "NORAD_CAT_ID": 37046, "ELEMENT_SET_NO": 999, "REV_AT_EPOCH": 64289, "BSTAR": 0.00051658795, "MEAN_MOTION_DOT": 1.178e-05, "MEAN_MOTION_DDOT": 0}, "tle": {"line1": "1 37046U 99025EEE 25354.31074918  .00001178  00000+0  51659-3 0  9992", "line2": "2 37046  98.5442   8.3637 0048859 284.7965  74.7805 14.24864867642896"}}, "geometry": {"type": "Point", "coordinates": [4.536922743478305, 31.7425786662346]}}, {"type": "Feature", "properties": {"norad_id": 37048, "name": "FENGYUN 1C DEB", "group": "fengyun-1c-debris", "lat": 73.67508500159352, "lon": -175.86697596729903, "alt_km": 884.72199705195, "timestamp": "2025-12-21T20:41:08.248608+00:00", "meta": {"OBJECT_NAME": "FENGYUN 1C DEB", "OBJECT_ID": "1999-025EEG", "EPOCH": "2025-12-20T11:28:01.182144", "MEAN_MOTION": 13.65138161, "ECCENTRICITY": 0.02535701, "INCLINATION": 98.8864, "RA_OF_ASC_NODE": 215.1499, "ARG_OF_PERICENTER": 129.0844, "MEAN_ANOMALY": 350.7839, "EPHEMERIS_TYPE": 0, "CLASSIFICATION_TYPE": "U", "NORAD_CAT_ID": 37048, "ELEMENT_SET_NO": 999, "REV_AT_EPOCH": 62275, "BSTAR": 0.00018884192, "MEAN_MOTION_DOT": 1.54e-06, "MEAN_MOTION_DDOT": 0}, "tle": {"line1": "1 37048U 99025EEG 25354.47779146  .00000154  00000+0  18884-3 0  9992", "line2": "2 37048  98.8864 215.1499 0253570 129.0844 350.7839 13.65138161622750"}}, "geometry": {"type": "Point", "coordinates": [-175.86697596729903, 73.67508500159352]}}, {"type": "Feature", "properties": {"norad_id": 37054, "name": "FENGYUN 1C DEB", "group": "fengyun-1c-debris", "lat": 70.51111084502674, "lon": -47.14954259607053, "alt_km": 747.8527554644734, "timestamp": "2025-12-21T20:41:08.248616+00:00", "meta": {"OBJECT_NAME": "FENGYUN 1C DEB", "OBJECT_ID": "1999-025EEN", "EPOCH": "2025-12-18T04:22:47.839296", "MEAN_MOTION": 14.19457855, "ECCENTRICITY": 0.01012295, "INCLINATION": 98.5505, "RA_OF_ASC_NODE": 334.4558, "ARG_OF_PERICENTER": 89.7023, "MEAN_ANOMALY": 271.5753, "EPHEMERIS_TYPE": 0, "CLASSIFICATION_TYPE": "U", "NORAD_CAT_ID": 37054, "ELEMENT_SET_NO": 999, "REV_AT_EPOCH": 64506, "BSTAR": 0.00022919283, "MEAN_MOTION_DOT": 4.67e-06, "MEAN_MOTION_DDOT": 0}, "tle": {"line1": "1 37054U 99025EEN 25352.18249814  .00000467  00000+0  22919-3 0  9990", "line2": "2 37054  98.5505 334.4558 0101229  89.7023 271.5753 14.19457855645069"}}, "geometry": {"type": "Point", "coordinates": [-47.14954259607053, 70.51111084502674]}}, {"type": "Feature", "properties": {"norad_id": 37056, "name": "FENGYUN 1C DEB", "group": "fengyun-1c-debris", "lat": -20.783574367476273, "lon": -164.6776199229928, "alt_km": 699.2514147467464, "timestamp": "2025-12-21T20:41:08.248625+00:00", "meta": {"OBJECT_NAME": "FENGYUN 1C DEB", "OBJECT_ID": "1999-025EEQ", "EPOCH": "2025-12-17T08:10:24.720960", "MEAN_MOTION": 14.50465139, "ECCENTRICITY": 0.02688582, "INCLINATION": 98.9815, "RA_OF_ASC_NODE": 13.9371, "ARG_OF_PERICENTER": 132.0541, "MEAN_ANOMALY": 230.387, "EPHEMERIS_TYPE": 0, "CLASSIFICATION_TYPE": "U", "NORAD_CAT_ID": 37056, "ELEMENT_SET_NO": 999, "REV_AT_EPOCH": 65478, "BSTAR": 0.0002042958, "MEAN_MOTION_DOT": 1.21e-05, "MEAN_MOTION_DDOT": 0}, "tle": {"line1": "1 37056U 99025EEQ 25351.34056390  .00001210  00000+0  20430-3 0  9997", "line2": "2 37056  98.9815  13.9371 0268858 132.0541 230.3870 14.50465139654781"}}, "geometry": {"type": "Point", "coordinates": [-164.6776199229928, -20.783574367476273]}}, {"type": "Feature", "properties": {"norad_id": 37057, "name": "FENGYUN 1C DEB", "group": "fengyun-1c-debris", "lat": -30.733222366551765, "lon": 15.755394992780262, "alt_km": 1082.3878338319064, "timestamp": "2025-12-21T20:41:08.248634+00:00", "meta": {"OBJECT_NAME": "FENGYUN 1C DEB", "OBJECT_ID": "1999-025EER", "EPOCH": "2025-12-19T18:57:33.353568", "MEAN_MOTION": 13.96116671, "ECCENTRICITY": 0.02853199, "INCLINATION": 98.9208, "RA_OF_ASC_NODE": 8.387, "ARG_OF_PERICENTER": 120.0686, "MEAN_ANOMALY": 242.91, "EPHEMERIS_TYPE": 0, "CLASSIFICATION_TYPE": "U", "NORAD_CAT_ID": 37057, "ELEMENT_SET_NO": 999, "REV_AT_EPOCH": 63696, "BSTAR": 7.2468399e-05, "MEAN_MOTION_DOT": 9.9e-07, "MEAN_MOTION_DDOT": 0}, "tle": {"line1": "1 37057U 99025EER 25353.78996937  .00000099  00000+0  72468-4 0  9991", "line2": "2 37057  98.9208   8.3870 0285319 120.0686 242.9100 13.96116671636966"}}, "geometry": {"type": "Point", "coordinates": [15.755394992780262, -30.733222366551765]}}, {"type": "Feature", "properties": {"norad_id": 37061, "name": "FENGYUN 1C DEB", "group": "fengyun-1c-debris", "lat": 57.43260844959484, "lon": -108.98769013588361, "alt_km": 1637.1600157472594, "timestamp": "2025-12-21T20:41:08.248643+00:00", "meta": {"OBJECT_NAME": "FENGYUN 1C DEB", "OBJECT_ID": "1999-025EEV", "EPOCH": "2025-12-18T09:50:01.681152", "MEAN_MOTION": 13.13570746, "ECCENTRICITY": 0.0801378, "INCLINATION": 98.0851, "RA_OF_ASC_NODE": 55.4892, "ARG_OF_PERICENTER": 351.5377, "MEAN_ANOMALY": 7.2876, "EPHEMERIS_TYPE": 0, "CLASSIFICATION_TYPE": "U", "NORAD_CAT_ID": 37061, "ELEMENT_SET_NO": 999, "REV_AT_EPOCH": 8230, "BSTAR": 0.002535, "MEAN_MOTION_DOT": 4.904e-05, "MEAN_MOTION_DDOT": 0}, "tle": {"line1": "1 37061U 99025EEV 25352.40974168  .00004904  00000+0  25350-2 0  9991", "line2": "2 37061  98.0851  55.4892 0801378 351.5377   7.2876 13.13570746 82301"}}, "geometry": {"type": "Point", "coordinates": [-108.98769013588361, 57.43260844959484]}}, {"type": "Feature", "properties": {"norad_id": 37064, "name": "FENGYUN 1C DEB", "group": "fengyun-1c-debris", "lat": 33.61656811928687, "lon": -26.012444268642927, "alt_km": 808.4960128528573, "timestamp": "2025-12-21T20:41:08.248652+00:00", "meta": {"OBJECT_NAME": "FENGYUN 1C DEB", "OBJECT_ID": "1999-025EEY", "EPOCH": "2025-11-25T16:29:09.460320", "MEAN_MOTION": 14.15612933, "ECCENTRICITY": 0.01070067, "INCLINATION": 98.9095, "RA_OF_ASC_NODE": 121.83, "ARG_OF_PERICENTER": 150.7609, "MEAN_ANOMALY": 209.9612, "EPHEMERIS_TYPE": 0, "CLASSIFICATION_TYPE": "U", "NORAD_CAT_ID": 37064, "ELEMENT_SET_NO": 999, "REV_AT_EPOCH": 81294, "BSTAR": 0.0049331234, "MEAN_MOTION_DOT": 0.00010179, "MEAN_MOTION_DDOT": 0}, "tle": {"line1": "1 37064U 99025EEY 25329.68691505  .00010179  00000+0  49331-2 0  9995", "line2": "2 37064  98.9095 121.8300 0107006 150.7609 209.9612 14.15612933812947"}}, "geometry": {"type": "Point", "coordinates": [-26.012444268642927, 33.61656811928687]}}, {"type": "Feature", "properties": {"norad_id": 37065, "name": "FENGYUN 1C DEB", "group": "fengyun-1c-debris", "lat": -28.516404647990452, "lon": -178.7659696039337, "alt_km": 1106.125234618541, "timestamp": "2025-12-21T20:41:08.248662+00:00", "meta": {"OBJECT_NAME": "FENGYUN 1C DEB", "OBJECT_ID": "1999-025EEZ", "EPOCH": "2025-12-13T18:30:23.335488", "MEAN_MOTION": 13.59126537, "ECCENTRICITY": 0.02987556, "INCLINATION": 103.2861, "RA_OF_ASC_NODE": 162.9273, "ARG_OF_PERICENTER": 240.3853, "MEAN_ANOMALY": 116.7203, "EPHEMERIS_TYPE": 0, "CLASSIFICATION_TYPE": "U", "NORAD_CAT_ID": 37065, "ELEMENT_SET_NO": 999, "REV_AT_EPOCH": 22216, "BSTAR": 0.0032978969, "MEAN_MOTION_DOT": 3.181e-05, "MEAN_MOTION_DDOT": 0}, "tle": {"line1": "1 37065U 99025EEZ 25347.77110342  .00003181  00000+0  32979-2 0  9996", "line2": "2 37065 103.2861 162.9273 0298755 240.3853 116.7203 13.59126537222160"}}, "geometry": {"type": "Point", "coordinates": [-178.7659696039337, -28.516404647990452]}}, {"type": "Feature", "properties": {"norad_id": 37067, "name": "FENGYUN 1C DEB", "group": "fengyun-1c-debris", "lat": 36.47504726369126, "lon": -69.33157604572888, "alt_km": 815.0948977831677, "timestamp": "2025-12-21T20:41:08.248671+00:00", "meta": {"OBJECT_NAME": "FENGYUN 1C DEB", "OBJECT_ID": "1999-025EFB", "EPOCH": "2025-12-21T01:38:57.261120", "MEAN_MOTION": 14.00389884, "ECCENTRICITY": 0.01565844, "INCLINATION": 99.5385, "RA_OF_ASC_NODE": 296.9816, "ARG_OF_PERICENTER": 89.0148, "MEAN_ANOMALY": 272.8951, "EPHEMERIS_TYPE": 0, "CLASSIFICATION_TYPE": "U", "NORAD_CAT_ID": 37067, "ELEMENT_SET_NO": 999, "REV_AT_EPOCH": 57525, "BSTAR": 0.0026651528, "MEAN_MOTION_DOT": 4.346e-05, "MEAN_MOTION_DDOT": 0}, "tle": {"line1": "1 37067U 99025EFB 25355.06871830  .00004346  00000+0  26652-2 0  9990", "line2": "2 37067  99.5385 296.9816 0156584  89.0148 272.8951 14.00389884575257"}}, "geometry": {"type": "Point", "coordinates": [-69.33157604572888, 36.47504726369126]}}, {"type": "Feature", "properties": {"norad_id": 37069, "name": "FENGYUN 1C DEB", "group": "fengyun-1c-debris", "lat": 36.451169641207855, "lon": -41.928992193592514, "alt_km": 1419.46148554492, "timestamp": "2025-12-21T20:41:08.248680+00:00", "meta": {"OBJECT_NAME": "FENGYUN 1C DEB", "OBJECT_ID": "1999-025EFD", "EPOCH": "2025-12-21T04:20:13.765632", "MEAN_MOTION": 13.38005069, "ECCENTRICITY": 0.04234335, "INCLINATION": 95.8488, "RA_OF_ASC_NODE": 322.0189, "ARG_OF_PERICENTER": 233.7857, "MEAN_ANOMALY": 122.3437, "EPHEMERIS_TYPE": 0, "CLASSIFICATION_TYPE": "U", "NORAD_CAT_ID": 37069, "ELEMENT_SET_NO": 999, "REV_AT_EPOCH": 87821, "BSTAR": 0.00093197507, "MEAN_MOTION_DOT": 8.07e-06, "MEAN_MOTION_DDOT": 0}, "tle": {"line1": "1 37069U 99025EFD 25355.18071488  .00000807  00000+0  93198-3 0  9994", "line2": "2 37069  95.8488 322.0189 0423433 233.7857 122.3437 13.38005069878211"}}, "geometry": {"type": "Point", "coordinates": [-41.928992193592514, 36.451169641207855]}}]}